start=new Date('2022-10-12T00:00:00.000Z').valueOf();
sats=[{"ECCENTRICITY":"0.00020790","SITE":"AFETR","MEAN_MOTION":"15.08832633","OBJECT_ID":"2021-104AG","REV_AT_EPOCH":"5093","LAUNCH_DATE":"2021-11-13","PERIAPSIS":"538.330","APOAPSIS":"541.206","FILE":"3604484","MEAN_MOTION_DOT":"-0.00002301","TIME_SYSTEM":"UTC","DECAY_DATE":null,"TLE_LINE1":"1 49438U 21104AG  22284.51080252 -.00002301  00000-0 -12650-3 0  9992","GP_ID":"214824179","SEMIMAJOR_AXIS":"6917.903","MEAN_ELEMENT_THEORY":"SGP4","MEAN_MOTION_DDOT":"0.0000000000000","EPHEMERIS_TYPE":"0","TLE_LINE2":"2 49438  53.2175  38.9522 0002079  43.7860 316.3297 15.08832633 50935","INCLINATION":"53.2175","COUNTRY_CODE":"US","BSTAR":"-0.00012650000000","PERIOD":"95.438","OBJECT_NAME":"STARLINK-3044","RA_OF_ASC_NODE":"38.9522","RCS_SIZE":"LARGE","EPOCH":"2022-10-11T12:15:33.337728","OBJECT_TYPE":"PAYLOAD","MEAN_ANOMALY":"316.3297","CENTER_NAME":"EARTH","REF_FRAME":"TEME","CLASSIFICATION_TYPE":"U","ELEMENT_SET_NO":"999","NORAD_CAT_ID":"49438","ARG_OF_PERICENTER":"43.7860"},{"RCS_SIZE":"LARGE","EPOCH":"2022-10-11T18:10:37.693344","INCLINATION":"53.2186","EPHEMERIS_TYPE":"0","TLE_LINE2":"2 49439  53.2186  37.8518 0002282  36.5413 323.5734 15.08818824 50977","COUNTRY_CODE":"US","PERIOD":"95.439","BSTAR":"-0.00012836000000","RA_OF_ASC_NODE":"37.8518","OBJECT_NAME":"STARLINK-3108","CLASSIFICATION_TYPE":"U","CENTER_NAME":"EARTH","REF_FRAME":"TEME","NORAD_CAT_ID":"49439","ELEMENT_SET_NO":"999","ARG_OF_PERICENTER":"36.5413","OBJECT_TYPE":"PAYLOAD","MEAN_ANOMALY":"323.5734","SITE":"AFETR","ECCENTRICITY":"0.00022820","MEAN_MOTION":"15.08818824","OBJECT_ID":"2021-104AH","REV_AT_EPOCH":"5097","APOAPSIS":"541.389","LAUNCH_DATE":"2021-11-13","PERIAPSIS":"538.231","FILE":"3604484","SEMIMAJOR_AXIS":"6917.945","MEAN_ELEMENT_THEORY":"SGP4","MEAN_MOTION_DDOT":"0.0000000000000","TIME_SYSTEM":"UTC","MEAN_MOTION_DOT":"-0.00002329","DECAY_DATE":null,"GP_ID":"214823930","TLE_LINE1":"1 49439U 21104AH  22284.75738071 -.00002329  00000-0 -12836-3 0  9994"},{"TIME_SYSTEM":"UTC","MEAN_MOTION_DOT":"-0.00001388","DECAY_DATE":null,"GP_ID":"214822678","TLE_LINE1":"1 49440U 21104AJ  22284.70585388 -.00001388  00000-0 -69137-4 0  9993","SEMIMAJOR_AXIS":"6917.935","MEAN_ELEMENT_THEORY":"SGP4","MEAN_MOTION_DDOT":"0.0000000000000","ECCENTRICITY":"0.00022270","SITE":"AFETR","MEAN_MOTION":"15.08822123","OBJECT_ID":"2021-104AJ","REV_AT_EPOCH":"5096","APOAPSIS":"541.341","LAUNCH_DATE":"2021-11-13","PERIAPSIS":"538.259","FILE":"3604484","OBJECT_TYPE":"PAYLOAD","MEAN_ANOMALY":"329.8508","REF_FRAME":"TEME","CENTER_NAME":"EARTH","CLASSIFICATION_TYPE":"U","ELEMENT_SET_NO":"999","NORAD_CAT_ID":"49440","ARG_OF_PERICENTER":"30.2612","TLE_LINE2":"2 49440  53.2183  38.0819 0002227  30.2612 329.8508 15.08822123 50968","EPHEMERIS_TYPE":"0","INCLINATION":"53.2183","COUNTRY_CODE":"US","BSTAR":"-0.00006913700000","PERIOD":"95.439","OBJECT_NAME":"STARLINK-3105","RA_OF_ASC_NODE":"38.0819","RCS_SIZE":"LARGE","EPOCH":"2022-10-11T16:56:25.775232"},{"FILE":"3604484","LAUNCH_DATE":"2021-11-13","APOAPSIS":"541.105","PERIAPSIS":"538.411","OBJECT_ID":"2021-104AK","MEAN_MOTION":"15.08836007","REV_AT_EPOCH":"5097","SITE":"AFETR","ECCENTRICITY":"0.00019470","GP_ID":"214823428","TLE_LINE1":"1 49441U 21104AK  22284.75367107 -.00004217  00000-0 -24704-3 0  9990","DECAY_DATE":null,"MEAN_MOTION_DOT":"-0.00004217","TIME_SYSTEM":"UTC","MEAN_MOTION_DDOT":"0.0000000000000","MEAN_ELEMENT_THEORY":"SGP4","SEMIMAJOR_AXIS":"6917.893","RA_OF_ASC_NODE":"37.8673","OBJECT_NAME":"STARLINK-3128","PERIOD":"95.438","BSTAR":"-0.00024704000000","COUNTRY_CODE":"US","INCLINATION":"53.2187","EPHEMERIS_TYPE":"0","TLE_LINE2":"2 49441  53.2187  37.8673 0001947  41.6781 318.4360 15.08836007 50976","EPOCH":"2022-10-11T18:05:17.180448","RCS_SIZE":"LARGE","MEAN_ANOMALY":"318.4360","OBJECT_TYPE":"PAYLOAD","ARG_OF_PERICENTER":"41.6781","NORAD_CAT_ID":"49441","ELEMENT_SET_NO":"999","CLASSIFICATION_TYPE":"U","CENTER_NAME":"EARTH","REF_FRAME":"TEME"},{"INCLINATION":"53.2184","TLE_LINE2":"2 49442  53.2184  37.4968 0002119  37.1815 322.9324 15.08834619 50985","EPHEMERIS_TYPE":"0","COUNTRY_CODE":"US","PERIOD":"95.438","BSTAR":"-0.00012314000000","RA_OF_ASC_NODE":"37.4968","OBJECT_NAME":"STARLINK-3098","RCS_SIZE":"LARGE","EPOCH":"2022-10-11T20:01:53.928480","OBJECT_TYPE":"PAYLOAD","MEAN_ANOMALY":"322.9324","CLASSIFICATION_TYPE":"U","CENTER_NAME":"EARTH","REF_FRAME":"TEME","NORAD_CAT_ID":"49442","ELEMENT_SET_NO":"999","ARG_OF_PERICENTER":"37.1815","SITE":"AFETR","ECCENTRICITY":"0.00021190","OBJECT_ID":"2021-104AL","MEAN_MOTION":"15.08834619","REV_AT_EPOCH":"5098","LAUNCH_DATE":"2021-11-13","APOAPSIS":"541.228","PERIAPSIS":"538.296","FILE":"3604484","TIME_SYSTEM":"UTC","MEAN_MOTION_DOT":"-0.00002247","DECAY_DATE":null,"GP_ID":"214823680","TLE_LINE1":"1 49442U 21104AL  22284.83465195 -.00002247  00000-0 -12314-3 0  9991","SEMIMAJOR_AXIS":"6917.897","MEAN_ELEMENT_THEORY":"SGP4","MEAN_MOTION_DDOT":"0.0000000000000"},{"SITE":"AFETR","ECCENTRICITY":"0.00020820","MEAN_MOTION":"15.08834783","OBJECT_ID":"2021-104AM","REV_AT_EPOCH":"5096","APOAPSIS":"541.202","LAUNCH_DATE":"2021-11-13","PERIAPSIS":"538.321","FILE":"3604484","SEMIMAJOR_AXIS":"6917.896","MEAN_ELEMENT_THEORY":"SGP4","MEAN_MOTION_DDOT":"0.0000000000000","MEAN_MOTION_DOT":"0.00000875","TIME_SYSTEM":"UTC","DECAY_DATE":null,"GP_ID":"214824430","TLE_LINE1":"1 49443U 21104AM  22284.68376465  .00000875  00000-0  73101-4 0  9991","RCS_SIZE":"LARGE","EPOCH":"2022-10-11T16:24:37.265760","INCLINATION":"53.2171","EPHEMERIS_TYPE":"0","TLE_LINE2":"2 49443  53.2171  38.1741 0002082  36.7824 323.3310 15.08834783 50963","COUNTRY_CODE":"US","PERIOD":"95.438","BSTAR":"0.00007310100000","RA_OF_ASC_NODE":"38.1741","OBJECT_NAME":"STARLINK-3136","CLASSIFICATION_TYPE":"U","REF_FRAME":"TEME","CENTER_NAME":"EARTH","NORAD_CAT_ID":"49443","ELEMENT_SET_NO":"999","ARG_OF_PERICENTER":"36.7824","OBJECT_TYPE":"PAYLOAD","MEAN_ANOMALY":"323.3310"},{"DECAY_DATE":null,"TLE_LINE1":"1 49444U 21104AN  22284.69849800 -.00003036  00000-0 -17281-3 0  9991","GP_ID":"214823178","MEAN_MOTION_DOT":"-0.00003036","TIME_SYSTEM":"UTC","MEAN_MOTION_DDOT":"0.0000000000000","SEMIMAJOR_AXIS":"6917.936","MEAN_ELEMENT_THEORY":"SGP4","APOAPSIS":"541.051","LAUNCH_DATE":"2021-11-13","PERIAPSIS":"538.552","FILE":"3604484","SITE":"AFETR","ECCENTRICITY":"0.00018060","MEAN_MOTION":"15.08821698","OBJECT_ID":"2021-104AN","REV_AT_EPOCH":"5096","MEAN_ANOMALY":"320.7192","OBJECT_TYPE":"PAYLOAD","NORAD_CAT_ID":"49444","ELEMENT_SET_NO":"999","ARG_OF_PERICENTER":"39.3931","CLASSIFICATION_TYPE":"U","REF_FRAME":"TEME","CENTER_NAME":"EARTH","PERIOD":"95.439","BSTAR":"-0.00017281000000","RA_OF_ASC_NODE":"38.1070","OBJECT_NAME":"STARLINK-3126","INCLINATION":"53.2178","TLE_LINE2":"2 49444  53.2178  38.1070 0001806  39.3931 320.7192 15.08821698 50967","EPHEMERIS_TYPE":"0","COUNTRY_CODE":"US","RCS_SIZE":"LARGE","EPOCH":"2022-10-11T16:45:50.227200"},{"EPOCH":"2022-10-11T18:41:04.447680","RCS_SIZE":"LARGE","RA_OF_ASC_NODE":"47.7509","OBJECT_NAME":"STARLINK-3122","PERIOD":"95.438","BSTAR":"0.00003211800000","COUNTRY_CODE":"US","INCLINATION":"53.2184","EPHEMERIS_TYPE":"0","TLE_LINE2":"2 49445  53.2184  47.7509 0001971  43.0889 317.0257 15.08831360 50839","ARG_OF_PERICENTER":"43.0889","NORAD_CAT_ID":"49445","ELEMENT_SET_NO":"999","CLASSIFICATION_TYPE":"U","REF_FRAME":"TEME","CENTER_NAME":"EARTH","MEAN_ANOMALY":"317.0257","OBJECT_TYPE":"PAYLOAD","FILE":"3604484","PERIAPSIS":"538.408","LAUNCH_DATE":"2021-11-13","APOAPSIS":"541.135","MEAN_MOTION":"15.08831360","OBJECT_ID":"2021-104AP","REV_AT_EPOCH":"5083","SITE":"AFETR","ECCENTRICITY":"0.00019710","MEAN_MOTION_DDOT":"0.0000000000000","MEAN_ELEMENT_THEORY":"SGP4","SEMIMAJOR_AXIS":"6917.907","TLE_LINE1":"1 49445U 21104AP  22284.77852370  .00000223  00000-0  32118-4 0  9997","GP_ID":"214822929","DECAY_DATE":null,"TIME_SYSTEM":"UTC","MEAN_MOTION_DOT":"0.00000223"},{"INCLINATION":"53.2181","EPHEMERIS_TYPE":"0","TLE_LINE2":"2 49446  53.2181  38.1238 0001865  54.7810 305.3357 15.08808982 50964","COUNTRY_CODE":"US","PERIOD":"95.440","BSTAR":"-0.00014867000000","RA_OF_ASC_NODE":"38.1238","OBJECT_NAME":"STARLINK-3099","RCS_SIZE":"LARGE","EPOCH":"2022-10-11T16:40:32.796192","OBJECT_TYPE":"PAYLOAD","MEAN_ANOMALY":"305.3357","CLASSIFICATION_TYPE":"U","CENTER_NAME":"EARTH","REF_FRAME":"TEME","NORAD_CAT_ID":"49446","ELEMENT_SET_NO":"999","ARG_OF_PERICENTER":"54.7810","SITE":"AFETR","ECCENTRICITY":"0.00018650","MEAN_MOTION":"15.08808982","OBJECT_ID":"2021-104AQ","REV_AT_EPOCH":"5096","LAUNCH_DATE":"2021-11-13","PERIAPSIS":"538.550","APOAPSIS":"541.130","FILE":"3604484","MEAN_MOTION_DOT":"-0.00002651","TIME_SYSTEM":"UTC","DECAY_DATE":null,"TLE_LINE1":"1 49446U 21104AQ  22284.69482403 -.00002651  00000-0 -14867-3 0  9994","GP_ID":"214824180","SEMIMAJOR_AXIS":"6917.975","MEAN_ELEMENT_THEORY":"SGP4","MEAN_MOTION_DDOT":"0.0000000000000"},{"RCS_SIZE":"LARGE","EPOCH":"2022-10-11T12:08:55.355136","INCLINATION":"53.2187","TLE_LINE2":"2 49447  53.2187  48.9728 0002370  16.2543 343.8525 15.08766295 50797","EPHEMERIS_TYPE":"0","COUNTRY_CODE":"US","PERIOD":"95.442","BSTAR":"0.00103260000000","RA_OF_ASC_NODE":"48.9728","OBJECT_NAME":"STARLINK-3115","CLASSIFICATION_TYPE":"U","CENTER_NAME":"EARTH","REF_FRAME":"TEME","NORAD_CAT_ID":"49447","ELEMENT_SET_NO":"999","ARG_OF_PERICENTER":"16.2543","OBJECT_TYPE":"PAYLOAD","MEAN_ANOMALY":"343.8525","SITE":"AFETR","ECCENTRICITY":"0.00023700","REV_AT_EPOCH":"5079","MEAN_MOTION":"15.08766295","OBJECT_ID":"2021-104AR","LAUNCH_DATE":"2021-11-13","PERIAPSIS":"538.331","APOAPSIS":"541.610","FILE":"3603543","SEMIMAJOR_AXIS":"6918.106","MEAN_ELEMENT_THEORY":"SGP4","MEAN_MOTION_DDOT":"0.0000000000000","MEAN_MOTION_DOT":"0.00016151","TIME_SYSTEM":"UTC","DECAY_DATE":null,"TLE_LINE1":"1 49447U 21104AR  22284.50619624  .00016151  00000-0  10326-2 0  9995","GP_ID":"214782456"}];
